NORAD_CAT_ID,OBJECT_NAME,OBJECT_TYPE,EPOCH,MEAN_MOTION,ECCENTRICITY,INCLINATION,RA_OF_ASC_NODE,ARG_OF_PERICENTER,MEAN_ANOMALY,BSTAR,MEAN_MOTION_DOT,MEAN_MOTION_DDOT,TLE_LINE0,TLE_LINE1,TLE_LINE2,SEMIMAJOR_AXIS,PERIOD,APOGEE,PERIGEE,DECAYED
56450.0,STARLINK-5970,PAYLOAD,2024-04-19 04:25:08,14.98327825,0.0002907,69.9995,82.9927,268.9334,91.1492,-3.2215e-05,-4.77e-06,0.0,0 STARLINK-5970,1 56450U 23064C   24110.18412692 -.00000477  00000-0 -32215-4 0  9993,2 56450  69.9995  82.9927 0002907 268.9334  91.1492 14.98327825 52326,6950.2,96.107,574.085,570.044,0.0
56450.0,STARLINK-5970,PAYLOAD,2024-04-19 07:37:24,14.98334012,0.0002727,69.9998,82.6574,255.6193,104.4663,-9.0131e-06,-2.01e-06,0.0,0 STARLINK-5970,1 56450U 23064C   24110.31764163 -.00000201  00000-0 -90131-5 0  9998,2 56450  69.9998  82.6574 0002727 255.6193 104.4663 14.98334012 51985,6950.18,96.107,573.941,570.15,0.0
56450.0,STARLINK-5970,PAYLOAD,2024-04-19 22:02:13,14.98561956,0.00041,69.9993,81.1403,262.182,97.8873,0.0024139,0.00029005,0.0,0 STARLINK-5970,1 56450U 23064C   24110.91820761  .00029005  00000-0  24139-2 0  9994,2 56450  69.9993  81.1403 0004100 262.1820  97.8873 14.98561956 52070,6949.476,96.092,574.19,568.491,0.0
56450.0,STARLINK-5970,PAYLOAD,2024-04-20 04:27:07,14.9833008,0.0002524,69.9997,80.4678,272.358,87.729,7.9481e-05,8.56e-06,0.0,0 STARLINK-5970,1 56450U 23064C   24111.18550215  .00000856  00000-0  79481-4 0  9993,2 56450  69.9997  80.4678 0002524 272.3580  87.7290 14.98330080 52471,6950.193,96.107,573.812,570.303,0.0
56450.0,STARLINK-5970,PAYLOAD,2024-04-20 07:39:22,14.98336458,0.0002241,70.0011,80.1325,276.9099,83.1805,0.00019081,2.185e-05,0.0,0 STARLINK-5970,1 56450U 23064C   24111.31901572  .00002185  00000-0  19081-3 0  9990,2 56450  70.0011  80.1325 0002241 276.9099  83.1805 14.98336458 52497,6950.173,96.107,573.595,570.48,0.0
56450.0,STARLINK-5970,PAYLOAD,2024-04-20 22:04:38,14.98321267,0.0002528,69.9993,78.6163,280.8526,79.2348,-0.00015689,-1.964e-05,0.0,0 STARLINK-5970,1 56450U 23064C   24111.91989238 -.00001964  00000-0 -15689-3 0  9997,2 56450  69.9993  78.6163 0002528 280.8526  79.2348 14.98321267 52223,6950.22,96.108,573.842,570.328,0.0
56450.0,STARLINK-5970,PAYLOAD,2024-04-21 04:29:12,14.98305679,0.0002943,69.9995,77.9429,277.4902,82.5923,-0.00031142,-3.804e-05,0.0,0 STARLINK-5970,1 56450U 23064C   24112.18694869 -.00003804  00000-0 -31142-3 0  9997,2 56450  69.9995  77.9429 0002943 277.4902  82.5923 14.98305679 52622,6950.268,96.109,574.179,570.088,0.0
56450.0,STARLINK-5970,PAYLOAD,2024-04-21 07:41:28,14.98307562,0.0002749,69.9998,77.6071,273.2818,86.8026,-0.00027502,-3.371e-05,0.0,0 STARLINK-5970,1 56450U 23064C   24112.32046723 -.00003371  00000-0 -27502-3 0  9997,2 56450  69.9998  77.6071 0002749 273.2818  86.8026 14.98307562 52285,6950.262,96.108,574.038,570.217,0.0
56450.0,STARLINK-5970,PAYLOAD,2024-04-21 22:06:43,14.97348055,0.0006418,69.9999,76.0903,334.171,25.9127,0.01562,0.0018659,0.0,0 STARLINK-5970,1 56450U 23064C   24112.92133962  .00186590  00000-0  15620-1 0  9994,2 56450  69.9999  76.0903 0006418 334.1710  25.9127 14.97348055 52375,6953.231,96.17,579.559,570.634,0.0
56450.0,STARLINK-5970,PAYLOAD,2024-04-22 06:00:00,14.98356205,0.0003044,70.0008,75.2611,275.5409,57.1184,-0.0019979,-0.00023867,0.0,0 STARLINK-5970,1 56450U 23064C   24113.25001157 -.00023867  00000-0 -19979-2 0  9992,2 56450  70.0008  75.2611 0003044 275.5409  57.1184 14.98356205 52783,6950.112,96.105,574.092,569.861,0.0
56450.0,STARLINK-5970,PAYLOAD,2024-04-22 07:43:43,14.97506164,0.0005574,70.0021,75.085,344.457,15.6416,0.01451,0.00173696,0.0,0 STARLINK-5970,1 56450U 23064C   24113.32202972  .00173696  00000-0  14510-1 0  9997,2 56450  70.0021  75.0850 0005574 344.4570  15.6416 14.97506164 52794,6952.742,96.16,578.482,570.731,0.0
56450.0,STARLINK-5970,PAYLOAD,2024-04-22 22:00:01,14.98321617,0.0003099,70.0011,73.5805,271.1228,56.5287,0.0013625,0.00016198,0.0,0 STARLINK-5970,1 56450U 23064C   24113.91668981  .00016198  00000-0  13625-2 0  9998,2 56450  70.0011  73.5805 0003099 271.1228  56.5287 14.98321617  5812,6950.219,96.108,574.238,569.93,0.0
56450.0,STARLINK-5970,PAYLOAD,2024-04-23 04:33:14,14.9830596,0.0002855,70.0002,72.8968,259.9751,100.1086,0.00014416,1.626e-05,0.0,0 STARLINK-5970,1 56450U 23064C   24114.18974910  .00001626  00000-0  14416-3 0  9990,2 56450  70.0002  72.8968 0002855 259.9751 100.1086 14.98305960 52928,6950.267,96.109,574.117,570.148,0.0
56450.0,STARLINK-5970,PAYLOAD,2024-04-23 07:45:30,14.98306361,0.000299,69.9998,72.5586,269.3171,90.7646,0.00013322,1.496e-05,0.0,0 STARLINK-5970,1 56450U 23064C   24114.32327145  .00001496  00000-0  13322-3 0  9998,2 56450  69.9998  72.5586 0002990 269.3171  90.7646 14.98306361 52587,6950.266,96.109,574.209,570.053,0.0
56450.0,STARLINK-5970,PAYLOAD,2024-04-23 20:34:34,14.98332823,0.000315,69.999,71.2048,267.9646,92.1152,-3.2807e-05,-4.84e-06,0.0,0 STARLINK-5970,1 56450U 23064C   24114.85734149 -.00000484  00000-0 -32807-4 0  9990,2 56450  69.9990  71.2048 0003150 267.9646  92.1152 14.98332823 53028,6950.184,96.107,574.238,569.86,0.0
56450.0,STARLINK-5970,PAYLOAD,2024-04-23 22:10:41,14.98338997,0.0002626,70.0018,71.0466,252.9104,107.1767,4.8838e-05,4.9e-06,0.0,0 STARLINK-5970,1 56450U 23064C   24114.92409539  .00000490  00000-0  48838-4 0  9996,2 56450  70.0018  71.0466 0002626 252.9104 107.1767 14.98338997 52671,6950.165,96.106,573.855,570.205,0.0
56450.0,STARLINK-5970,PAYLOAD,2024-04-24 02:59:05,14.98344632,0.0002392,70.0017,70.5399,253.1873,106.9023,0.00010688,1.183e-05,0.0,0 STARLINK-5970,1 56450U 23064C   24115.12436937  .00001183  00000-0  10688-3 0  9992,2 56450  70.0017  70.5399 0002392 253.1873 106.9023 14.98344632 53064,6950.148,96.106,573.675,570.35,0.0
56450.0,STARLINK-5970,PAYLOAD,2024-04-24 06:11:21,14.98345884,0.0002274,70.0028,70.2041,231.8327,128.2627,0.00014256,1.609e-05,0.0,0 STARLINK-5970,1 56450U 23064C   24115.25788548  .00001609  00000-0  14256-3 0  9992,2 56450  70.0028  70.2041 0002274 231.8327 128.2627 14.98345884 52722,6950.144,96.106,573.589,570.428,0.0
56450.0,STARLINK-5970,PAYLOAD,2024-04-24 22:12:41,14.98336844,0.000288,70.0022,68.5194,238.172,121.9159,0.00017854,2.038e-05,0.0,0 STARLINK-5970,1 56450U 23064C   24115.92548366  .00002038  00000-0  17854-3 0  9992,2 56450  70.0022  68.5194 0002880 238.1720 121.9159 14.98336844 52822,6950.172,96.107,574.038,570.035,0.0
56450.0,STARLINK-5970,PAYLOAD,2024-04-25 06:00:00,14.98352037,0.0003069,70.0018,67.6976,269.3496,40.7406,-0.0041137,-0.00048865,0.0,0 STARLINK-5970,1 56450U 23064C   24116.25001157 -.00048865  00000-0 -41137-2 0  9991,2 56450  70.0018  67.6976 0003069 269.3496  40.7406 14.98352037 53221,6950.125,96.106,574.123,569.857,0.0
56450.0,STARLINK-5970,PAYLOAD,2024-04-25 14:00:01,14.98308154,0.0003068,70.0017,66.8571,267.2228,40.4225,0.00073358,8.666e-05,0.0,0 STARLINK-5970,1 56450U 23064C   24116.58335648  .00008666  00000-0  73358-3 0  9996,2 56450  70.0017  66.8571 0003068 267.2228  40.4225 14.98308154  5810,6950.26,96.108,574.258,569.993,0.0
56450.0,STARLINK-5970,PAYLOAD,2024-04-25 22:00:00,14.98345509,0.0003112,70.002,66.0169,264.2876,40.7503,0.00060519,7.138e-05,0.0,0 STARLINK-5970,1 56450U 23064C   24116.91667824  .00007138  00000-0  60519-3 0  9995,2 56450  70.0020  66.0169 0003112 264.2876  40.7503 14.98345509 53321,6950.145,96.106,574.173,569.847,0.0
56450.0,STARLINK-5970,PAYLOAD,2024-04-26 06:15:23,14.98341805,0.0002644,70.0014,65.1515,255.9016,104.1849,-0.00013819,-1.742e-05,0.0,0 STARLINK-5970,1 56450U 23064C   24117.26068452 -.00001742  00000-0 -13819-3 0  9994,2 56450  70.0014  65.1515 0002644 255.9016 104.1849 14.98341805 53380,6950.156,96.106,573.859,570.184,0.0
56450.0,STARLINK-5970,PAYLOAD,2024-04-26 14:16:03,14.98343446,0.0002828,70.0007,64.307,269.3209,90.7626,-0.0001659,-2.073e-05,0.0,0 STARLINK-5970,1 56450U 23064C   24117.59448115 -.00002073  00000-0 -16590-3 0  9995,2 56450  70.0007  64.3070 0002828 269.3209  90.7626 14.98343446 53078,6950.151,96.106,573.982,570.051,0.0
56450.0,STARLINK-5970,PAYLOAD,2024-04-26 22:16:43,14.98334186,0.0002798,70.0006,63.4657,263.8878,96.1963,-1.1707e-05,-2.33e-06,0.0,0 STARLINK-5970,1 56450U 23064C   24117.92828165 -.00000233  00000-0 -11707-4 0  9991,2 56450  70.0006  63.4657 0002798 263.8878  96.1963 14.98334186 53126,6950.18,96.107,573.99,570.1,0.0
56450.0,STARLINK-5970,PAYLOAD,2024-04-27 06:17:23,14.98341064,0.0002653,70.001,62.6245,266.3216,93.7639,8.9435e-05,9.75e-06,0.0,0 STARLINK-5970,1 56450U 23064C   24118.26207249  .00000975  00000-0  89435-4 0  9997,2 56450  70.0010  62.6245 0002653 266.3216  93.7639 14.98341064 53530,6950.159,96.106,573.868,570.18,0.0
56450.0,STARLINK-5970,PAYLOAD,2024-04-27 20:42:36,14.98326667,0.0001938,70.0031,61.1133,245.8852,114.2104,2.1292e-05,1.61e-06,0.0,0 STARLINK-5970,1 56450U 23064C   24118.86292378  .00000161  00000-0  21292-4 0  9994,2 56450  70.0031  61.1133 0001938 245.8852 114.2104 14.98326667 53624,6950.203,96.107,573.415,570.721,0.0
56450.0,STARLINK-5970,PAYLOAD,2024-04-27 22:18:44,14.9832549,0.0002301,70.0028,60.9466,249.0537,111.0376,-2.0765e-05,-3.41e-06,0.0,0 STARLINK-5970,1 56450U 23064C   24118.92968535 -.00000341  00000-0 -20765-4 0  9992,2 56450  70.0028  60.9466 0002301 249.0537 111.0376 14.98325490 53277,6950.207,96.107,573.671,570.473,0.0
56450.0,STARLINK-5970,PAYLOAD,2024-04-28 04:43:17,14.98321442,0.0002439,70.0015,60.2721,250.0842,110.0055,-0.00016328,-2.04e-05,0.0,0 STARLINK-5970,1 56450U 23064C   24119.19673291 -.00002040  00000-0 -16328-3 0  9991,2 56450  70.0015  60.2721 0002439 250.0842 110.0055 14.98321442 53673,6950.219,96.108,573.78,570.389,0.0
56450.0,STARLINK-5970,PAYLOAD,2024-04-28 12:43:57,14.98326801,0.0002742,70.0007,59.4292,271.1501,88.9344,-8.8615e-05,-1.15e-05,0.0,0 STARLINK-5970,1 56450U 23064C   24119.53052887 -.00001150  00000-0 -88615-4 0  9991,2 56450  70.0007  59.4292 0002742 271.1501  88.9344 14.98326801 53364,6950.203,96.107,573.974,570.162,0.0
